1 08820U 76039A   03086.68524999 -.00000005  00000-0  10000-3 0  9307
2 08820 109.8196 153.7034 0044405 318.8519  40.8865  6.38664577371856
